{
"type": "FeatureCollection",
"name": "sicpArea_merged_final",
"crs": { "type": "name", "properties": { "name": "urn:ogc:def:crs:OGC:1.3:CRS84" } },
"features": [
{ "type": "Feature", "properties": { "layer": "Polygon Layer" }, "geometry": { "type": "Polygon", "coordinates": [ [ [ 8.581347962220422, 51.595905694145245 ], [ 8.585891266318608, 51.619070489636613 ], [ 8.5847605, 51.621343 ], [ 8.5840554, 51.6227734 ], [ 8.5819234, 51.6270443 ], [ 8.5818595, 51.6272105 ], [ 8.5815666, 51.6279719 ], [ 8.5800408, 51.6319299 ], [ 8.5787938, 51.6367236 ], [ 8.5770434, 51.636849 ], [ 8.5774898, 51.6401626 ], [ 8.577899, 51.64008590000001 ], [ 8.5782579, 51.6399558 ], [ 8.5783611, 51.6399977 ], [ 8.5788479, 51.6424336 ], [ 8.5770982, 51.6421468 ], [ 8.577273, 51.6422256 ], [ 8.5768477, 51.6422542 ], [ 8.5774081, 51.6450064 ], [ 8.5759664, 51.6450597 ], [ 8.5759471, 51.6451296 ], [ 8.5755554, 51.6451396 ], [ 8.5757826, 51.6462695 ], [ 8.5751075, 51.6461901 ], [ 8.5756282, 51.6480522 ], [ 8.5755794, 51.648603099999988 ], [ 8.5745281, 51.6529695 ], [ 8.5746241, 51.6531864 ], [ 8.5745978, 51.653345399999985 ], [ 8.5741927, 51.6544919 ], [ 8.57395, 51.6548643 ], [ 8.573742, 51.65549510000001 ], [ 8.573465, 51.6577442 ], [ 8.5734963, 51.65817 ], [ 8.5734185, 51.6589178 ], [ 8.5734512, 51.65918 ], [ 8.5733472, 51.659466 ], [ 8.5730886, 51.6595568 ], [ 8.5729759, 51.6595672 ], [ 8.5724489, 51.65958 ], [ 8.5718469, 51.6593863 ], [ 8.5711272, 51.6590568 ], [ 8.5686377, 51.6585344 ], [ 8.5684654, 51.6584869 ], [ 8.568418, 51.6584531 ], [ 8.5683521, 51.6584595 ], [ 8.5681566, 51.6585961 ], [ 8.5679075, 51.6588298 ], [ 8.5677852, 51.6589745 ], [ 8.5676337, 51.6592167 ], [ 8.5673726, 51.6593569 ], [ 8.5666629, 51.6596694 ], [ 8.5663045, 51.659823 ], [ 8.5656983, 51.6600436 ], [ 8.5643884, 51.660733899999983 ], [ 8.5638307, 51.6613551 ], [ 8.5632788, 51.6618108 ], [ 8.5626684, 51.662313 ], [ 8.5623418, 51.6625253 ], [ 8.5615839, 51.6629328 ], [ 8.5604375, 51.6635646 ], [ 8.5601451, 51.6637713 ], [ 8.5595511, 51.6642428 ], [ 8.5592646, 51.6644911 ], [ 8.5585174, 51.6651141 ], [ 8.5579213, 51.6655794 ], [ 8.5575777, 51.66600960000001 ], [ 8.5569302, 51.6665857 ], [ 8.556764, 51.6668095 ], [ 8.5568133, 51.6671815 ], [ 8.556653, 51.6673776 ], [ 8.5563329, 51.6676092 ], [ 8.5560502, 51.6678667 ], [ 8.5556276, 51.6680711 ], [ 8.5551747, 51.6682011 ], [ 8.5547121, 51.668256 ], [ 8.5545824, 51.6682973 ], [ 8.5543637, 51.668624899999983 ], [ 8.5540014, 51.668908299999984 ], [ 8.5536274, 51.6690113 ], [ 8.553528, 51.6690717 ], [ 8.5532024, 51.669139199999989 ], [ 8.5523064, 51.6693867 ], [ 8.5513909, 51.6694807 ], [ 8.5511502, 51.6694807 ], [ 8.5504895, 51.6696684 ], [ 8.5503057, 51.6697088 ], [ 8.5495803, 51.6697927 ], [ 8.5492842, 51.6697884 ], [ 8.5489945, 51.6697488 ], [ 8.54782, 51.6697735 ], [ 8.5473353, 51.669784 ], [ 8.5471772, 51.6697673 ], [ 8.5469949, 51.669707399999986 ], [ 8.5468137, 51.66968210000001 ], [ 8.5453817, 51.6696785 ], [ 8.5448585, 51.6696168 ], [ 8.5445581, 51.6695398 ], [ 8.544286, 51.669479 ], [ 8.5440196, 51.669436 ], [ 8.5437955, 51.6693628 ], [ 8.5432081, 51.66941030000001 ], [ 8.5429869, 51.669378099999989 ], [ 8.5419929, 51.6689562 ], [ 8.5407998, 51.668782 ], [ 8.5381409, 51.668939 ], [ 8.5332103, 51.66926 ], [ 8.5296218, 51.669495 ], [ 8.5271965, 51.6707645 ], [ 8.5263905, 51.6709428 ], [ 8.524901, 51.6712506 ], [ 8.5246409, 51.67129520000001 ], [ 8.5221453, 51.6715095 ], [ 8.5212374, 51.671674 ], [ 8.5207961, 51.6719576 ], [ 8.520219, 51.6722109 ], [ 8.5198706, 51.6727032 ], [ 8.5194592, 51.6731956 ], [ 8.5190376, 51.6734991 ], [ 8.5170782, 51.6744393 ], [ 8.5160023, 51.6752117 ], [ 8.5159469, 51.6752672 ], [ 8.5155568, 51.6758894 ], [ 8.5152084, 51.6763052 ], [ 8.5148612, 51.6767384 ], [ 8.5147876, 51.6771165 ], [ 8.5147233, 51.6774109 ], [ 8.5142324, 51.6776457 ], [ 8.5134841, 51.6779866 ], [ 8.5130065, 51.6782041 ], [ 8.5128061, 51.6782954 ], [ 8.5126284, 51.678459 ], [ 8.5121067, 51.6789455 ], [ 8.5118709, 51.6791177 ], [ 8.5117012, 51.679223899999982 ], [ 8.5111337, 51.679390699999985 ], [ 8.5105228, 51.6795171 ], [ 8.5107738, 51.6802988 ], [ 8.5103766, 51.680369799999987 ], [ 8.5092341, 51.6804153 ], [ 8.5088895, 51.6803952 ], [ 8.50845, 51.6802712 ], [ 8.5063317, 51.6803014 ], [ 8.5059804, 51.6802756 ], [ 8.5051748, 51.6802662 ], [ 8.5040646, 51.6802272 ], [ 8.5036812, 51.6805081 ], [ 8.5032083, 51.6805697 ], [ 8.5027396, 51.6807141 ], [ 8.5018759, 51.6808935 ], [ 8.5013305, 51.680926099999986 ], [ 8.5003172, 51.6808921 ], [ 8.49921, 51.68090440000001 ], [ 8.4983515, 51.6809007 ], [ 8.497889, 51.680954399999983 ], [ 8.4966508, 51.6810726 ], [ 8.4964199, 51.680981 ], [ 8.4955516, 51.681278899999988 ], [ 8.4947466, 51.6816231 ], [ 8.4942357, 51.6817438 ], [ 8.4945459, 51.6822899 ], [ 8.4943799, 51.6823064 ], [ 8.4940961, 51.6823131 ], [ 8.4940664, 51.6822262 ], [ 8.4939942, 51.6822297 ], [ 8.4937463, 51.682176699999985 ], [ 8.4934153, 51.6819328 ], [ 8.4925311, 51.6821368 ], [ 8.4916185, 51.682039 ], [ 8.4904643, 51.6822531 ], [ 8.4905149, 51.6824959 ], [ 8.4890472, 51.682827 ], [ 8.4889137, 51.6827965 ], [ 8.4887719, 51.6825097 ], [ 8.4878414, 51.6826693 ], [ 8.4864727, 51.6829689 ], [ 8.4845634, 51.6833105 ], [ 8.4835148, 51.6834101 ], [ 8.4828155, 51.683488 ], [ 8.481897, 51.6835727 ], [ 8.4807104, 51.683685 ], [ 8.4805612, 51.6838139 ], [ 8.4803031, 51.683748 ], [ 8.4798272, 51.6837362 ], [ 8.4792863, 51.6836982 ], [ 8.4789013, 51.683658499999986 ], [ 8.4788348, 51.6836624 ], [ 8.4785796, 51.6836834 ], [ 8.4782051, 51.683693899999987 ], [ 8.4781634, 51.6837804 ], [ 8.478137, 51.6841786 ], [ 8.4781601, 51.684468499999987 ], [ 8.4780898, 51.6846358 ], [ 8.4781008, 51.6847666 ], [ 8.4781337, 51.6847952 ], [ 8.4781041, 51.684960599999989 ], [ 8.47812, 51.68566 ], [ 8.4782573, 51.6866962 ], [ 8.4789321, 51.686513299999987 ], [ 8.4788074, 51.6880981 ], [ 8.4789208, 51.6880617 ], [ 8.4789327, 51.6878872 ], [ 8.4825519, 51.6865658 ], [ 8.4826764, 51.6868838 ], [ 8.4830228, 51.6868562 ], [ 8.4838559, 51.6867814 ], [ 8.4840417, 51.686775399999988 ], [ 8.4841114, 51.6867786 ], [ 8.4841729, 51.6868674 ], [ 8.4842443, 51.6868476 ], [ 8.4845109, 51.6868476 ], [ 8.4845582, 51.6868783 ], [ 8.4845656, 51.6870273 ], [ 8.4845859, 51.6870565 ], [ 8.4847065, 51.6871327 ], [ 8.4847194, 51.6871648 ], [ 8.4847065, 51.6872475 ], [ 8.4847263, 51.6873796 ], [ 8.4847112, 51.6874207 ], [ 8.4846961, 51.6875411 ], [ 8.484774, 51.6875521 ], [ 8.485038, 51.6875274 ], [ 8.4850384, 51.6876582 ], [ 8.4849964, 51.6877196 ], [ 8.4850046, 51.6877506 ], [ 8.484972, 51.687856 ], [ 8.4849004, 51.6879138 ], [ 8.4848101, 51.6879491 ], [ 8.4847366, 51.6879333 ], [ 8.4847251, 51.687996 ], [ 8.484823, 51.6882003 ], [ 8.4848017, 51.6882562 ], [ 8.4848567, 51.6883945 ], [ 8.4849173, 51.6884458 ], [ 8.4849906, 51.688528 ], [ 8.4849821, 51.6886067 ], [ 8.4850442, 51.6887071 ], [ 8.4850412, 51.6888644 ], [ 8.4850582, 51.6889287 ], [ 8.4850337, 51.6890081 ], [ 8.4849828, 51.689083599999989 ], [ 8.4848301, 51.689243 ], [ 8.4847449, 51.689294599999982 ], [ 8.4844748, 51.689509 ], [ 8.4843747, 51.689657 ], [ 8.4842478, 51.6897566 ], [ 8.4841208, 51.6899103 ], [ 8.4840894, 51.6899962 ], [ 8.4840437, 51.6900388 ], [ 8.4839889, 51.6900443 ], [ 8.4839096, 51.6900794 ], [ 8.4839287, 51.69021930000001 ], [ 8.4839718, 51.6903008 ], [ 8.4840673, 51.6903773 ], [ 8.4841796, 51.6904321 ], [ 8.4841173, 51.6904618 ], [ 8.4846432, 51.6912152 ], [ 8.4842683, 51.6918367 ], [ 8.4836516, 51.6924756 ], [ 8.4831395, 51.6931654 ], [ 8.4831531, 51.6948599 ], [ 8.4775945, 51.6973308 ], [ 8.4802081, 51.697107 ], [ 8.4802537, 51.6982662 ], [ 8.4800697, 51.6983605 ], [ 8.4799802, 51.6984236 ], [ 8.4798329, 51.6985372 ], [ 8.4795123, 51.6987047 ], [ 8.4793687, 51.698723499999986 ], [ 8.4792381, 51.6987225 ], [ 8.4791095, 51.6986802 ], [ 8.4789713, 51.6986242 ], [ 8.4788935, 51.6984998 ], [ 8.4787258, 51.6981785 ], [ 8.4784862, 51.698019099999989 ], [ 8.4782331, 51.697948 ], [ 8.4770965, 51.698018 ], [ 8.4768387, 51.6980482 ], [ 8.4766046, 51.698089799999984 ], [ 8.4764766, 51.6981455 ], [ 8.4763576, 51.6982254 ], [ 8.475975, 51.6985667 ], [ 8.4757511, 51.6986488 ], [ 8.4755402, 51.6986573 ], [ 8.4741385, 51.6987218 ], [ 8.4736738, 51.6987001 ], [ 8.473305, 51.6986318 ], [ 8.4731031, 51.698552 ], [ 8.4728955, 51.6984396 ], [ 8.4725832, 51.698276399999983 ], [ 8.4721808, 51.6980549 ], [ 8.4721488, 51.6979645 ], [ 8.4720127, 51.6978774 ], [ 8.4716838, 51.7003169 ], [ 8.4714679, 51.7018614 ], [ 8.4717452, 51.7018452 ], [ 8.4717377, 51.7026305 ], [ 8.470512, 51.7026936 ], [ 8.4699275, 51.7026787 ], [ 8.4698358, 51.7032816 ], [ 8.4697375, 51.7040175 ], [ 8.4696732, 51.7043051 ], [ 8.4699378, 51.7044182 ], [ 8.47025, 51.7045908 ], [ 8.4704765, 51.7050692 ], [ 8.4705548, 51.7050763 ], [ 8.475057, 51.705487 ], [ 8.4749826, 51.7059336 ], [ 8.4748802, 51.70612710000001 ], [ 8.4752145, 51.706226899999983 ], [ 8.4749171, 51.7067563 ], [ 8.4748173, 51.707053899999984 ], [ 8.4750713, 51.7071249 ], [ 8.4755087, 51.7071851 ], [ 8.4758488, 51.7072203 ], [ 8.475989, 51.7072726 ], [ 8.4755666, 51.7078501 ], [ 8.4756044, 51.707981899999986 ], [ 8.4767454, 51.7077094 ], [ 8.4788342, 51.7078787 ], [ 8.4791249, 51.7076424 ], [ 8.4796044, 51.707590599999989 ], [ 8.4788937, 51.709256699999983 ], [ 8.4760694, 51.7089764 ], [ 8.4749692, 51.7111894 ], [ 8.4778203, 51.7114422 ], [ 8.4768245, 51.7145815 ], [ 8.4687981, 51.714588 ], [ 8.4683846, 51.7183608 ], [ 8.4680736, 51.7211757 ], [ 8.4692629, 51.72143 ], [ 8.4684315, 51.7226146 ], [ 8.4711842, 51.7232309 ], [ 8.4717369, 51.7231231 ], [ 8.4734033, 51.7230416 ], [ 8.473802, 51.7223633 ], [ 8.4738308, 51.7223141 ], [ 8.4740001, 51.7223443 ], [ 8.4740996, 51.7222284 ], [ 8.4741228, 51.722273199999989 ], [ 8.4790284, 51.7232916 ], [ 8.4829114, 51.724368 ], [ 8.4829787, 51.7239836 ], [ 8.4843944, 51.7222546 ], [ 8.4868061, 51.7228728 ], [ 8.4869975, 51.722606 ], [ 8.4927906, 51.7241585 ], [ 8.4925308, 51.715790899999988 ], [ 8.4917067, 51.7140792 ], [ 8.491791, 51.7140751 ], [ 8.4951661, 51.7139091 ], [ 8.4988305, 51.7155042 ], [ 8.5036479, 51.7116669 ], [ 8.5029201, 51.7115845 ], [ 8.5029886, 51.7115197 ], [ 8.5000458, 51.711203 ], [ 8.501333, 51.7101862 ], [ 8.5043559, 51.7104723 ], [ 8.5042684, 51.7105839 ], [ 8.5049723, 51.7108747 ], [ 8.5051396, 51.7107834 ], [ 8.50585, 51.710135799999989 ], [ 8.5103498, 51.7108527 ], [ 8.5145171, 51.7123882 ], [ 8.514896, 51.7116679 ], [ 8.5150376, 51.7115398 ], [ 8.5151331, 51.711706 ], [ 8.5152685, 51.7118496 ], [ 8.515453, 51.7119752 ], [ 8.5155065, 51.712006599999988 ], [ 8.5176435, 51.713223 ], [ 8.5177511, 51.7132237 ], [ 8.5195287, 51.711976 ], [ 8.5195234, 51.7119045 ], [ 8.5191423, 51.7116701 ], [ 8.5191913, 51.7116235 ], [ 8.5185676, 51.7114708 ], [ 8.5182227, 51.7113466 ], [ 8.517962, 51.7112173 ], [ 8.519044, 51.7094444 ], [ 8.5191334, 51.7094752 ], [ 8.5204765, 51.7093816 ], [ 8.5220729, 51.7096034 ], [ 8.5221341, 51.7095302 ], [ 8.5233749, 51.7098297 ], [ 8.5238529, 51.7100242 ], [ 8.5241826, 51.7102516 ], [ 8.5241924, 51.7108116 ], [ 8.5241404, 51.7111035 ], [ 8.5245433, 51.7113508 ], [ 8.525018, 51.7115785 ], [ 8.5256226, 51.7120179 ], [ 8.5260488, 51.7122793 ], [ 8.5267566, 51.7122861 ], [ 8.5277909, 51.7123157 ], [ 8.528175, 51.7123848 ], [ 8.5283509, 51.712553 ], [ 8.5282206, 51.71273450000001 ], [ 8.5277946, 51.7128857 ], [ 8.5274438, 51.713127 ], [ 8.5274679, 51.7134312 ], [ 8.5275077, 51.7138043 ], [ 8.5277461, 51.714172 ], [ 8.527902, 51.7143823 ], [ 8.5281405, 51.7145613 ], [ 8.528451, 51.7147457 ], [ 8.5286495, 51.7148403 ], [ 8.5288609, 51.7148888 ], [ 8.5291085, 51.714917699999987 ], [ 8.5295324, 51.7148918 ], [ 8.5299047, 51.71486380000001 ], [ 8.5302756, 51.7148607 ], [ 8.5306432, 51.7149367 ], [ 8.5309471, 51.7150712 ], [ 8.5309509, 51.715072199999987 ], [ 8.5315304, 51.7152987 ], [ 8.5326751, 51.715475499999989 ], [ 8.5331922, 51.7156337 ], [ 8.5342662, 51.71639480000001 ], [ 8.534499, 51.7169658 ], [ 8.5347844, 51.7174032 ], [ 8.5351385, 51.7177408 ], [ 8.535632, 51.71824 ], [ 8.5363169, 51.7160821 ], [ 8.5351502, 51.7158229 ], [ 8.538254, 51.7130133 ], [ 8.5371443, 51.7128697 ], [ 8.5361079, 51.711775299999985 ], [ 8.5356565, 51.7115267 ], [ 8.5375276, 51.7094397 ], [ 8.5402792, 51.7101354 ], [ 8.5413138, 51.7090169 ], [ 8.5436031, 51.7083622 ], [ 8.5478075, 51.7113493 ], [ 8.5497628, 51.7107777 ], [ 8.5499648, 51.710369799999988 ], [ 8.5513922, 51.7104587 ], [ 8.5525487, 51.7087517 ], [ 8.5515936, 51.7042324 ], [ 8.5626002, 51.7055521 ], [ 8.5620058, 51.7088532 ], [ 8.5720877, 51.7160957 ], [ 8.5709823, 51.7164325 ], [ 8.5710787, 51.7164874 ], [ 8.5765539, 51.7196038 ], [ 8.5789724, 51.720963199999979 ], [ 8.5826047, 51.72299970000001 ], [ 8.5826098, 51.7250577 ], [ 8.5837122, 51.7253052 ], [ 8.5845383, 51.7250952 ], [ 8.5853773, 51.7249866 ], [ 8.5863311, 51.7250487 ], [ 8.5864819, 51.7249945 ], [ 8.5873573, 51.7250274 ], [ 8.5873552, 51.7251913 ], [ 8.5879053, 51.7254205 ], [ 8.5896487, 51.7256472 ], [ 8.59284, 51.7256824 ], [ 8.5933055, 51.7259638 ], [ 8.593276, 51.7263717 ], [ 8.5945407, 51.727369 ], [ 8.5946817, 51.7277905 ], [ 8.5953404, 51.7278696 ], [ 8.5959498, 51.728034 ], [ 8.5972867, 51.7286672 ], [ 8.5978667, 51.7286916 ], [ 8.5983287, 51.7289595 ], [ 8.5986103, 51.729293 ], [ 8.5984727, 51.7297679 ], [ 8.6005862, 51.7299323 ], [ 8.6034959, 51.7292017 ], [ 8.6047241, 51.7290837 ], [ 8.6066115, 51.7292238 ], [ 8.6073985, 51.7290678 ], [ 8.6084595, 51.729108099999983 ], [ 8.611075, 51.7295914 ], [ 8.6121485, 51.7295929 ], [ 8.6137897, 51.7291205 ], [ 8.6152402, 51.7287902 ], [ 8.6176853, 51.7287743 ], [ 8.6180872, 51.7287264 ], [ 8.6180743, 51.7287056 ], [ 8.6183062, 51.7286195 ], [ 8.6189914, 51.7286014 ], [ 8.6188649, 51.7283104 ], [ 8.617708, 51.7277716 ], [ 8.6166976, 51.7276514 ], [ 8.6169134, 51.726639699999986 ], [ 8.6170669, 51.7266821 ], [ 8.6171803, 51.7267475 ], [ 8.6174637, 51.7268209 ], [ 8.6175899, 51.726787399999985 ], [ 8.6177368, 51.726698099999986 ], [ 8.6178347, 51.7265704 ], [ 8.6179506, 51.7265417 ], [ 8.6182469, 51.7265736 ], [ 8.6183294, 51.7266342 ], [ 8.6186823, 51.7267906 ], [ 8.6187364, 51.7269534 ], [ 8.6188885, 51.727017200000013 ], [ 8.6190327, 51.727038 ], [ 8.6191564, 51.727069899999989 ], [ 8.6193496, 51.7270906 ], [ 8.6197206, 51.7267731 ], [ 8.619838, 51.7267421 ], [ 8.622956, 51.72817460000001 ], [ 8.6241497, 51.7260462 ], [ 8.6271936, 51.7268176 ], [ 8.6271799, 51.7252804 ], [ 8.6343492, 51.7260086 ], [ 8.634536, 51.725432399999988 ], [ 8.6346985, 51.7254362 ], [ 8.6346483, 51.7255841 ], [ 8.6349055, 51.7256297 ], [ 8.6348407, 51.7261728 ], [ 8.6351457, 51.7261076 ], [ 8.6354626, 51.7260597 ], [ 8.6360269, 51.7260422 ], [ 8.6360784, 51.725964 ], [ 8.6361789, 51.7260086 ], [ 8.6365937, 51.726016600000015 ], [ 8.6370166, 51.72608420000001 ], [ 8.6372739, 51.7262432 ], [ 8.6374542, 51.7263055 ], [ 8.6376732, 51.7263326 ], [ 8.6376706, 51.7263869 ], [ 8.6382246, 51.726511299999984 ], [ 8.6388584, 51.7267044 ], [ 8.6395527, 51.7268575 ], [ 8.6400715, 51.726335099999986 ], [ 8.6403491, 51.7264154 ], [ 8.6405494, 51.7264603 ], [ 8.6408336, 51.726514 ], [ 8.640972, 51.7265501 ], [ 8.6410449, 51.7265571 ], [ 8.6415053, 51.7266358 ], [ 8.6418357, 51.7266805 ], [ 8.6424571, 51.7267788 ], [ 8.6429458, 51.7264666 ], [ 8.6450132, 51.7249503 ], [ 8.6461962, 51.723285 ], [ 8.6491898, 51.7190707 ], [ 8.6490379, 51.7189714 ], [ 8.6515483, 51.7174641 ], [ 8.6578993, 51.7135073 ], [ 8.658210518321349, 51.712519979790642 ], [ 8.66351918978213, 51.713297159481527 ], [ 8.684834130947383, 51.697363457568144 ], [ 8.6849188, 51.6973945 ], [ 8.6848903, 51.6974244 ], [ 8.6870164, 51.6982173 ], [ 8.6890299, 51.6990345 ], [ 8.689448, 51.699300299999983 ], [ 8.6895605, 51.699402199999987 ], [ 8.6898053, 51.6993014 ], [ 8.6958758, 51.7016044 ], [ 8.6960843, 51.7017094 ], [ 8.696248338843212, 51.701772463133807 ], [ 8.695414906285571, 51.702383103468769 ], [ 8.695506421474386, 51.705129764885868 ], [ 8.703580613515904, 51.708006144270527 ], [ 8.715447504421721, 51.709511170273302 ], [ 8.719909000616784, 51.710041113507053 ], [ 8.73889757001086, 51.702993338179446 ], [ 8.753817070323048, 51.701194597341839 ], [ 8.760163973312256, 51.70066117269662 ], [ 8.7616131002108, 51.696892913978367 ], [ 8.749574016045797, 51.681372683442554 ], [ 8.7496716, 51.6813586 ], [ 8.7499599, 51.6813436 ], [ 8.7504494, 51.6812671 ], [ 8.7511198, 51.6811537 ], [ 8.7512313, 51.6809686 ], [ 8.7515518, 51.6808405 ], [ 8.7518066, 51.6806214 ], [ 8.7529251, 51.6805004 ], [ 8.7538424, 51.6803674 ], [ 8.7561203, 51.6800765 ], [ 8.7705575, 51.67941 ], [ 8.7709402, 51.6793659 ], [ 8.771159, 51.6794695 ], [ 8.7714548, 51.679633899999985 ], [ 8.7718236, 51.6800705 ], [ 8.7736889, 51.6815924 ], [ 8.7759329, 51.683202 ], [ 8.7797125, 51.6835459 ], [ 8.7836884, 51.6839066 ], [ 8.7843944, 51.6834275 ], [ 8.7846922, 51.683390499999987 ], [ 8.7849185, 51.6834057 ], [ 8.7860636, 51.6832367 ], [ 8.7873083, 51.6829247 ], [ 8.7883922, 51.6825547 ], [ 8.7888793, 51.6823122 ], [ 8.7893569, 51.681947 ], [ 8.7894365, 51.6805174 ], [ 8.7909205, 51.6795781 ], [ 8.7915888, 51.6808591 ], [ 8.7925768, 51.6807543 ], [ 8.7926418, 51.6810929 ], [ 8.7966982, 51.6808833 ], [ 8.7970395, 51.68229920000001 ], [ 8.7971513, 51.682859 ], [ 8.7973385, 51.6832266 ], [ 8.7977264, 51.6836044 ], [ 8.8002235, 51.6845377 ], [ 8.8015555, 51.6882554 ], [ 8.801384, 51.6888043 ], [ 8.8023161, 51.6925291 ], [ 8.8063222, 51.691115199999984 ], [ 8.8072977, 51.6949246 ], [ 8.8078557, 51.6949811 ], [ 8.8096903, 51.6950738 ], [ 8.8101226, 51.6951362 ], [ 8.8106452, 51.695272099999983 ], [ 8.8109286, 51.6953835 ], [ 8.8113771, 51.6955732 ], [ 8.8111713, 51.695660499999988 ], [ 8.8111515, 51.6956668 ], [ 8.8116228, 51.6956423 ], [ 8.8123641, 51.6956024 ], [ 8.8127444, 51.6954454 ], [ 8.8129254, 51.6951452 ], [ 8.8138311, 51.6939063 ], [ 8.8186602, 51.6904996 ], [ 8.8226833, 51.690655 ], [ 8.8259908, 51.686974 ], [ 8.8271819, 51.6851592 ], [ 8.8296473, 51.682487699999989 ], [ 8.8344313, 51.680516099999984 ], [ 8.8356509, 51.6803672 ], [ 8.8353882, 51.67995 ], [ 8.8405082, 51.678611399999987 ], [ 8.8421928, 51.6783781 ], [ 8.8434725, 51.6779711 ], [ 8.8438666, 51.677983499999989 ], [ 8.8450559, 51.677299199999986 ], [ 8.8467964, 51.6766159 ], [ 8.8462844, 51.676219 ], [ 8.8507821, 51.6754302 ], [ 8.8524949, 51.6759929 ], [ 8.8526024, 51.675804 ], [ 8.8544245, 51.6761668 ], [ 8.8554608, 51.6748705 ], [ 8.8562314, 51.6750594 ], [ 8.8569529, 51.6742532 ], [ 8.8571498, 51.674049 ], [ 8.857276, 51.6740791 ], [ 8.8583389, 51.6713693 ], [ 8.8587237, 51.670858399999986 ], [ 8.8590007, 51.6704814 ], [ 8.8584068, 51.6702285 ], [ 8.8592475, 51.6694084 ], [ 8.8583703, 51.668846 ], [ 8.8597897, 51.667951 ], [ 8.858535, 51.6672053 ], [ 8.8584682, 51.667159 ], [ 8.8582919, 51.6669957 ], [ 8.8581538, 51.6667898 ], [ 8.8579752, 51.6663227 ], [ 8.8578784, 51.6658982 ], [ 8.8571248, 51.6655754 ], [ 8.857102, 51.6653256 ], [ 8.8571383, 51.6647528 ], [ 8.8571586, 51.66405120000001 ], [ 8.8571376, 51.6639486 ], [ 8.8570368, 51.6624247 ], [ 8.8573065, 51.6613034 ], [ 8.8569992, 51.6612562 ], [ 8.8573457, 51.6600725 ], [ 8.8586318, 51.6602587 ], [ 8.8587858, 51.6598022 ], [ 8.8569514, 51.6594766 ], [ 8.8573697, 51.6580907 ], [ 8.8574034, 51.6575545 ], [ 8.8574952, 51.6570561 ], [ 8.8575599, 51.656785 ], [ 8.8576343, 51.6565148 ], [ 8.8573108, 51.6563709 ], [ 8.8567643, 51.6562073 ], [ 8.8546899, 51.65530660000001 ], [ 8.8542627, 51.6549882 ], [ 8.8539634, 51.6543355 ], [ 8.8537251, 51.6540931 ], [ 8.8533044, 51.6538414 ], [ 8.8529451, 51.6535133 ], [ 8.8527153, 51.6532738 ], [ 8.8523555, 51.6527158 ], [ 8.8523136, 51.652479 ], [ 8.8512947, 51.6527403 ], [ 8.850579, 51.65168950000001 ], [ 8.8496308, 51.6518924 ], [ 8.8492234, 51.6512119 ], [ 8.8487311, 51.6501971 ], [ 8.8486033, 51.649717699999989 ], [ 8.8507168, 51.649576599999989 ], [ 8.850099, 51.6483065 ], [ 8.8494716, 51.6480515 ], [ 8.8492614, 51.6478106 ], [ 8.8503516, 51.6447966 ], [ 8.8495025, 51.6447888 ], [ 8.8485305, 51.6446114 ], [ 8.8480274, 51.6443418 ], [ 8.8470326, 51.6433484 ], [ 8.8459786, 51.6423045 ], [ 8.8457499, 51.6406298 ], [ 8.8452353, 51.6395015 ], [ 8.8451095, 51.638515 ], [ 8.8464647, 51.6385046 ], [ 8.8465267, 51.638386199999985 ], [ 8.84735, 51.6384075 ], [ 8.8474415, 51.6380101 ], [ 8.8480704, 51.637832599999989 ], [ 8.8477731, 51.6366687 ], [ 8.8480818, 51.6361152 ], [ 8.8488133, 51.6358097 ], [ 8.8486341, 51.6355962 ], [ 8.8480052, 51.63531230000001 ], [ 8.8467688, 51.634972199999986 ], [ 8.8455638, 51.6358872 ], [ 8.845438, 51.636125 ], [ 8.8454016, 51.6363776 ], [ 8.8447691, 51.63633080000001 ], [ 8.8440601, 51.6362101 ], [ 8.8439212, 51.6357092 ], [ 8.8443483, 51.6345981 ], [ 8.8446405, 51.6343372 ], [ 8.8450156, 51.6343279 ], [ 8.8451869, 51.6335863 ], [ 8.8432051, 51.6336244 ], [ 8.8431211, 51.6331836 ], [ 8.8407598, 51.634118399999984 ], [ 8.8404632, 51.6337767 ], [ 8.840633, 51.633711399999989 ], [ 8.840439, 51.6334856 ], [ 8.8408513, 51.6333701 ], [ 8.839493, 51.6313938 ], [ 8.8353351, 51.6323692 ], [ 8.8333851, 51.6328267 ], [ 8.830551, 51.6297782 ], [ 8.8302181, 51.6297238 ], [ 8.8289416, 51.631517 ], [ 8.8284351, 51.631374 ], [ 8.8263136, 51.6310526 ], [ 8.8168683, 51.6284121 ], [ 8.8171087, 51.628001 ], [ 8.8129347, 51.6268221 ], [ 8.8136208, 51.6259134 ], [ 8.8095657, 51.6251516 ], [ 8.8101009, 51.6236716 ], [ 8.8069516, 51.6229809 ], [ 8.8033764, 51.6222193 ], [ 8.8041224, 51.6197944 ], [ 8.7988187, 51.6187437 ], [ 8.7944778, 51.6169342 ], [ 8.7959619, 51.6147877 ], [ 8.7861637, 51.6145068 ], [ 8.7842723, 51.6145545 ], [ 8.7796068, 51.6139864 ], [ 8.7778794, 51.6132923 ], [ 8.7758333, 51.6128219 ], [ 8.7741387, 51.6129092 ], [ 8.7718497, 51.6118655 ], [ 8.7698575, 51.6106539 ], [ 8.7677976, 51.6098946 ], [ 8.766506, 51.6096476 ], [ 8.7658475, 51.6106632 ], [ 8.764762, 51.6104116 ], [ 8.7645834, 51.610489899999976 ], [ 8.7628707, 51.6098771 ], [ 8.7626982, 51.6099568 ], [ 8.762624, 51.610007599999989 ], [ 8.7626735, 51.6102274 ], [ 8.7625864, 51.610828899999987 ], [ 8.7623536, 51.6111794 ], [ 8.7625787, 51.6112799 ], [ 8.7615557, 51.6124546 ], [ 8.7604041, 51.6120974 ], [ 8.7600501, 51.6127343 ], [ 8.7593216, 51.6123117 ], [ 8.7579878, 51.6115569 ], [ 8.7547326, 51.6136585 ], [ 8.7453566, 51.6102358 ], [ 8.7382613, 51.6078133 ], [ 8.737978, 51.6077192 ], [ 8.7378637, 51.6076915 ], [ 8.7350494, 51.6067426 ], [ 8.7349976, 51.6068017 ], [ 8.732722, 51.6069644 ], [ 8.7335205, 51.6097628 ], [ 8.7332929, 51.6112864 ], [ 8.7329951, 51.611934899999987 ], [ 8.7328881, 51.6120644 ], [ 8.7312652, 51.6112103 ], [ 8.7299911, 51.6107738 ], [ 8.729559, 51.6106663 ], [ 8.729538096383767, 51.610687969459981 ], [ 8.713505325247146, 51.600158995494382 ], [ 8.7137545, 51.6000523 ], [ 8.7133107, 51.5996344 ], [ 8.7125519, 51.5992164 ], [ 8.7125805, 51.598834 ], [ 8.711607, 51.5989318 ], [ 8.7107766, 51.5978202 ], [ 8.7081071, 51.5970409 ], [ 8.7088874, 51.5965473 ], [ 8.7083004, 51.596276 ], [ 8.7090305, 51.5958047 ], [ 8.7065067, 51.594582599999988 ], [ 8.7093541, 51.5928606 ], [ 8.7095689, 51.5928428 ], [ 8.7101845, 51.592402499999984 ], [ 8.7099984, 51.5923447 ], [ 8.7101686, 51.5922234 ], [ 8.7099632, 51.5920591 ], [ 8.7088035, 51.5927528 ], [ 8.7020957, 51.5884491 ], [ 8.7000352, 51.5870175 ], [ 8.6988014, 51.5861488 ], [ 8.6968273, 51.585268499999984 ], [ 8.6987594, 51.5836958 ], [ 8.698052, 51.5834556 ], [ 8.697465, 51.583191 ], [ 8.6973934, 51.583231 ], [ 8.6968282, 51.5829468 ], [ 8.69664, 51.5830789 ], [ 8.6959766, 51.5828299 ], [ 8.6959969, 51.5826349 ], [ 8.6967966, 51.5820184 ], [ 8.6910317, 51.5782034 ], [ 8.6857989, 51.5804824 ], [ 8.6828341, 51.578202 ], [ 8.6821826, 51.5764961 ], [ 8.6817586, 51.5760402 ], [ 8.681388, 51.5761936 ], [ 8.6813665, 51.5764205 ], [ 8.6809943, 51.57682530000001 ], [ 8.6796199, 51.5772168 ], [ 8.6794911, 51.5771768 ], [ 8.6786327, 51.5774946 ], [ 8.6788039, 51.5772301 ], [ 8.6787967, 51.5768565 ], [ 8.6789614, 51.5767586 ], [ 8.6791117, 51.5765762 ], [ 8.6789041, 51.576376 ], [ 8.6791922, 51.5762261 ], [ 8.6791422, 51.576028699999988 ], [ 8.6792282, 51.5759217 ], [ 8.6791168, 51.575711 ], [ 8.6790662, 51.5754153 ], [ 8.6793547, 51.5753492 ], [ 8.679375, 51.5751447 ], [ 8.6792535, 51.5748868 ], [ 8.6793699, 51.5745754 ], [ 8.6791683, 51.574183599999984 ], [ 8.6784014, 51.5744201 ], [ 8.678115, 51.574228799999986 ], [ 8.6767406, 51.5744712 ], [ 8.67644, 51.5745669 ], [ 8.6762682, 51.5745624 ], [ 8.6758924, 51.5747782 ], [ 8.6752875, 51.5753098 ], [ 8.6749626, 51.5753566 ], [ 8.6743146, 51.5748137 ], [ 8.6740104, 51.5744578 ], [ 8.6742083, 51.5743666 ], [ 8.6738789, 51.5740807 ], [ 8.6733106, 51.5739144 ], [ 8.6729455, 51.573633 ], [ 8.6728292, 51.5733861 ], [ 8.6725068, 51.573136 ], [ 8.6721013, 51.5730179 ], [ 8.6718185, 51.5727866 ], [ 8.6717827, 51.5726554 ], [ 8.6715537, 51.5723639 ], [ 8.6709917, 51.5720725 ], [ 8.6706033, 51.571685 ], [ 8.6713076, 51.5714232 ], [ 8.6710216, 51.571018 ], [ 8.6713906, 51.5708601 ], [ 8.6711341, 51.5704335 ], [ 8.6711968, 51.5704102 ], [ 8.6711529, 51.5703312 ], [ 8.6711108, 51.5703291 ], [ 8.6710855, 51.5701789 ], [ 8.6711336, 51.570068 ], [ 8.6712664, 51.5699893 ], [ 8.6712138, 51.569878 ], [ 8.670503, 51.5700064 ], [ 8.6703222, 51.570090899999983 ], [ 8.6703007, 51.570072 ], [ 8.6701773, 51.5701209 ], [ 8.6700574, 51.5702155 ], [ 8.669984, 51.5703145 ], [ 8.6696798, 51.5704624 ], [ 8.6695581, 51.570468 ], [ 8.669105, 51.5706682 ], [ 8.668944, 51.570508 ], [ 8.6687865, 51.5703879 ], [ 8.6687257, 51.5702989 ], [ 8.6685789, 51.570258899999985 ], [ 8.6683749, 51.5701321 ], [ 8.6681816, 51.570141 ], [ 8.6679633, 51.569943 ], [ 8.6678149, 51.5697298 ], [ 8.6678338, 51.5695619 ], [ 8.6680199, 51.5692327 ], [ 8.6683027, 51.5688968 ], [ 8.6686345, 51.5680727 ], [ 8.6683063, 51.5680558 ], [ 8.6663348, 51.568059899999987 ], [ 8.6660008, 51.5679843 ], [ 8.6660615, 51.56789 ], [ 8.6657932, 51.5677798 ], [ 8.6658692, 51.567679199999986 ], [ 8.6643102, 51.5671443 ], [ 8.6642065, 51.567233 ], [ 8.6641099, 51.5672185 ], [ 8.664084, 51.5672549 ], [ 8.6611225, 51.5672952 ], [ 8.6588518, 51.5669978 ], [ 8.6594491, 51.565519 ], [ 8.658619, 51.5650974 ], [ 8.6573333, 51.5656575 ], [ 8.655916, 51.5652296 ], [ 8.6557946, 51.5644304 ], [ 8.6567289, 51.5638238 ], [ 8.655847, 51.562826 ], [ 8.6540433, 51.563157 ], [ 8.652907, 51.562488 ], [ 8.6535878, 51.5614515 ], [ 8.6535732, 51.561254299999987 ], [ 8.6537521, 51.5608649 ], [ 8.6542359, 51.5603949 ], [ 8.654503, 51.5602074 ], [ 8.6551564, 51.5599366 ], [ 8.6552982, 51.5593212 ], [ 8.6566653, 51.5586823 ], [ 8.6574093, 51.558106399999986 ], [ 8.6576027, 51.557699 ], [ 8.6577951, 51.5574504 ], [ 8.6582648, 51.556875899999987 ], [ 8.6584582, 51.556433899999988 ], [ 8.6584925, 51.5560294 ], [ 8.6579763, 51.5560734 ], [ 8.6578208, 51.5558173 ], [ 8.6465022, 51.558505199999985 ], [ 8.6436292, 51.5593603 ], [ 8.6437353, 51.559488699999989 ], [ 8.6406463, 51.5602896 ], [ 8.6384666, 51.5607151 ], [ 8.6337776, 51.5612823 ], [ 8.6310171, 51.5618439 ], [ 8.6322339, 51.5625432 ], [ 8.6322428, 51.5631987 ], [ 8.6314332, 51.5635111 ], [ 8.6306235, 51.5638235 ], [ 8.6301488, 51.5639594 ], [ 8.6292862, 51.5644556 ], [ 8.6288782, 51.5648238 ], [ 8.628216, 51.5655807 ], [ 8.6296702, 51.566330099999988 ], [ 8.6293345, 51.5666696 ], [ 8.6289996, 51.5675222 ], [ 8.6293056, 51.5677288 ], [ 8.6288022, 51.5683293 ], [ 8.6290144, 51.56857260000001 ], [ 8.6286853, 51.568769 ], [ 8.6282522, 51.5692207 ], [ 8.628038, 51.5693269 ], [ 8.628026, 51.5696327 ], [ 8.627323, 51.5699074 ], [ 8.6277139, 51.5703817 ], [ 8.6291285, 51.57146920000001 ], [ 8.6320349, 51.5749295 ], [ 8.6344562, 51.5771188 ], [ 8.634875, 51.577945799999988 ], [ 8.6354241, 51.5796982 ], [ 8.635708, 51.5811556 ], [ 8.6349633, 51.5827923 ], [ 8.6350063, 51.5828002 ], [ 8.6350335, 51.5828749 ], [ 8.6301132, 51.582602 ], [ 8.6297596, 51.5841981 ], [ 8.6246968, 51.583885799999983 ], [ 8.6242315, 51.5851349 ], [ 8.6238964, 51.5851002 ], [ 8.6237103, 51.585412399999989 ], [ 8.6237103, 51.5860254 ], [ 8.6204075, 51.5854629 ], [ 8.6198556, 51.5864449 ], [ 8.6201089, 51.5864858 ], [ 8.6201155, 51.5866248 ], [ 8.6200234, 51.5868865 ], [ 8.6198852, 51.5871318 ], [ 8.6195289, 51.5875883 ], [ 8.6191983, 51.587851 ], [ 8.6192542, 51.5879052 ], [ 8.6191538, 51.5881424 ], [ 8.6189054, 51.588403 ], [ 8.61857, 51.5887059 ], [ 8.6182048, 51.588591499999986 ], [ 8.6180633, 51.588571 ], [ 8.6179087, 51.5887284 ], [ 8.6174283, 51.5892497 ], [ 8.6172243, 51.5893683 ], [ 8.6165925, 51.5892886 ], [ 8.6164313, 51.58940710000001 ], [ 8.6161878, 51.5896484 ], [ 8.6161744, 51.5897885 ], [ 8.6163422, 51.590013399999989 ], [ 8.6165363, 51.5901953 ], [ 8.6168785, 51.5903568 ], [ 8.6173457, 51.5905347 ], [ 8.6177537, 51.5906675 ], [ 8.6181949, 51.5908362 ], [ 8.6181554, 51.5908873 ], [ 8.6178692, 51.591151 ], [ 8.617984269986374, 51.591254853453151 ], [ 8.581347962220422, 51.595905694145245 ] ], [ [ 8.618170734010741, 51.591368684996638 ], [ 8.6183496, 51.5914535 ], [ 8.6183364, 51.5914924 ], [ 8.61807725692829, 51.591553937712973 ], [ 8.618170734010741, 51.591368684996638 ] ] ] } }
]
}
